start=new Date('2021-10-24T00:00:00.000Z').valueOf();
sats=[{"ARG_OF_PERICENTER":"76.0700","SITE":"AFETR","APOAPSIS":"548.221","FILE":"3181152","ELEMENT_SET_NO":"999","OBJECT_NAME":"STARLINK-2374","TIME_SYSTEM":"UTC","OBJECT_ID":"2021-021BF","DECAY_DATE":null,"MEAN_MOTION_DDOT":"0.0000000000000","MEAN_MOTION":"15.06403453","COUNTRY_CODE":"US","NORAD_CAT_ID":"47913","MEAN_ANOMALY":"284.0452","REF_FRAME":"TEME","GP_ID":"188023841","BSTAR":"0.00014952000000","EPHEMERIS_TYPE":"0","CLASSIFICATION_TYPE":"U","INCLINATION":"53.0567","CENTER_NAME":"EARTH","PERIOD":"95.592","ECCENTRICITY":"0.00014700","RCS_SIZE":"LARGE","SEMIMAJOR_AXIS":"6925.338","TLE_LINE1":"1 47913U 21021BF  21296.61387822  .00001946  00000-0  14952-3 0  9991","RA_OF_ASC_NODE":"255.6582","REV_AT_EPOCH":"3519","LAUNCH_DATE":"2021-03-14","MEAN_ELEMENT_THEORY":"SGP4","PERIAPSIS":"546.185","TLE_LINE2":"2 47913  53.0567 255.6582 0001470  76.0700 284.0452 15.06403453 35191","EPOCH":"2021-10-23T14:43:59.078208","OBJECT_TYPE":"PAYLOAD","MEAN_MOTION_DOT":"0.00001946"},{"RA_OF_ASC_NODE":"255.6676","TLE_LINE1":"1 47914U 21021BG  21296.61114175 -.00000544  00000-0 -17596-4 0  9994","SEMIMAJOR_AXIS":"6925.378","RCS_SIZE":"LARGE","ECCENTRICITY":"0.00016330","PERIOD":"95.593","OBJECT_TYPE":"PAYLOAD","MEAN_MOTION_DOT":"-0.00000544","EPOCH":"2021-10-23T14:40:02.647200","TLE_LINE2":"2 47914  53.0563 255.6676 0001633  83.6353 276.4822 15.06390365 35183","LAUNCH_DATE":"2021-03-14","MEAN_ELEMENT_THEORY":"SGP4","PERIAPSIS":"546.112","REV_AT_EPOCH":"3518","MEAN_MOTION_DDOT":"0.0000000000000","MEAN_MOTION":"15.06390365","OBJECT_ID":"2021-021BG","DECAY_DATE":null,"TIME_SYSTEM":"UTC","APOAPSIS":"548.374","FILE":"3181152","ELEMENT_SET_NO":"999","OBJECT_NAME":"STARLINK-2375","ARG_OF_PERICENTER":"83.6353","SITE":"AFETR","CENTER_NAME":"EARTH","CLASSIFICATION_TYPE":"U","INCLINATION":"53.0563","EPHEMERIS_TYPE":"0","BSTAR":"-0.00001759600000","REF_FRAME":"TEME","GP_ID":"188024091","NORAD_CAT_ID":"47914","MEAN_ANOMALY":"276.4822","COUNTRY_CODE":"US"},{"INCLINATION":"53.0546","CLASSIFICATION_TYPE":"U","CENTER_NAME":"EARTH","EPHEMERIS_TYPE":"0","GP_ID":"188024843","REF_FRAME":"TEME","BSTAR":"0.00012530000000","COUNTRY_CODE":"US","NORAD_CAT_ID":"47915","MEAN_ANOMALY":"289.6418","DECAY_DATE":null,"OBJECT_ID":"2021-021BH","MEAN_MOTION":"15.06390338","MEAN_MOTION_DDOT":"0.0000000000000","TIME_SYSTEM":"UTC","OBJECT_NAME":"STARLINK-2376","FILE":"3181152","ELEMENT_SET_NO":"999","APOAPSIS":"548.346","ARG_OF_PERICENTER":"70.4743","SITE":"AFETR","MEAN_MOTION_DOT":"0.00001585","OBJECT_TYPE":"PAYLOAD","TLE_LINE2":"2 47915  53.0546 250.6309 0001593  70.4743 289.6418 15.06390338 35261","EPOCH":"2021-10-23T14:38:03.977664","REV_AT_EPOCH":"3526","MEAN_ELEMENT_THEORY":"SGP4","PERIAPSIS":"546.140","LAUNCH_DATE":"2021-03-14","RA_OF_ASC_NODE":"250.6309","ECCENTRICITY":"0.00015930","RCS_SIZE":"MEDIUM","SEMIMAJOR_AXIS":"6925.378","TLE_LINE1":"1 47915U 21021BH  21296.60976826  .00001585  00000-0  12530-3 0  9999","PERIOD":"95.593"},{"BSTAR":"-0.00000066758000","REF_FRAME":"TEME","GP_ID":"188025593","MEAN_ANOMALY":"282.8708","NORAD_CAT_ID":"47916","COUNTRY_CODE":"US","CENTER_NAME":"EARTH","INCLINATION":"53.0540","CLASSIFICATION_TYPE":"U","EPHEMERIS_TYPE":"0","OBJECT_NAME":"STARLINK-2378","FILE":"3181152","ELEMENT_SET_NO":"999","APOAPSIS":"548.228","ARG_OF_PERICENTER":"77.2444","SITE":"AFETR","MEAN_MOTION":"15.06398980","MEAN_MOTION_DDOT":"0.0000000000000","DECAY_DATE":null,"OBJECT_ID":"2021-021BJ","TIME_SYSTEM":"UTC","MEAN_ELEMENT_THEORY":"SGP4","PERIAPSIS":"546.206","LAUNCH_DATE":"2021-03-14","REV_AT_EPOCH":"3539","MEAN_MOTION_DOT":"-0.00000291","OBJECT_TYPE":"PAYLOAD","EPOCH":"2021-10-23T06:02:31.446240","TLE_LINE2":"2 47916  53.0540 237.2755 0001460  77.2444 282.8708 15.06398980 35390","PERIOD":"95.592","RA_OF_ASC_NODE":"237.2755","TLE_LINE1":"1 47916U 21021BJ  21296.25175285 -.00000291  00000-0 -66758-6 0  9990","RCS_SIZE":"LARGE","SEMIMAJOR_AXIS":"6925.352","ECCENTRICITY":"0.00014600"},{"BSTAR":"-0.00000402570000","REF_FRAME":"TEME","GP_ID":"188024341","MEAN_ANOMALY":"297.9716","NORAD_CAT_ID":"47917","COUNTRY_CODE":"US","CENTER_NAME":"EARTH","CLASSIFICATION_TYPE":"U","INCLINATION":"53.0571","EPHEMERIS_TYPE":"0","FILE":"3181152","APOAPSIS":"548.420","ELEMENT_SET_NO":"999","OBJECT_NAME":"STARLINK-2397","SITE":"AFETR","ARG_OF_PERICENTER":"62.1451","MEAN_MOTION_DDOT":"0.0000000000000","MEAN_MOTION":"15.06403337","OBJECT_ID":"2021-021BK","DECAY_DATE":null,"TIME_SYSTEM":"UTC","LAUNCH_DATE":"2021-03-14","PERIAPSIS":"545.987","MEAN_ELEMENT_THEORY":"SGP4","REV_AT_EPOCH":"3529","OBJECT_TYPE":"PAYLOAD","MEAN_MOTION_DOT":"-0.00000342","EPOCH":"2021-10-23T14:09:30.701088","TLE_LINE2":"2 47917  53.0571 245.7683 0001757  62.1451 297.9716 15.06403337 35297","PERIOD":"95.592","RA_OF_ASC_NODE":"245.7683","TLE_LINE1":"1 47917U 21021BK  21296.58993867 -.00000342  00000-0 -40257-5 0  9993","ECCENTRICITY":"0.00017570","RCS_SIZE":"LARGE","SEMIMAJOR_AXIS":"6925.338"},{"COUNTRY_CODE":"US","MEAN_ANOMALY":"288.3529","NORAD_CAT_ID":"47918","REF_FRAME":"TEME","GP_ID":"188024591","BSTAR":"0.00015802000000","EPHEMERIS_TYPE":"0","CLASSIFICATION_TYPE":"U","INCLINATION":"53.0559","CENTER_NAME":"EARTH","SITE":"AFETR","ARG_OF_PERICENTER":"71.7646","ELEMENT_SET_NO":"999","FILE":"3181152","APOAPSIS":"548.413","OBJECT_NAME":"STARLINK-2398","TIME_SYSTEM":"UTC","OBJECT_ID":"2021-021BL","DECAY_DATE":null,"MEAN_MOTION_DDOT":"0.0000000000000","MEAN_MOTION":"15.06394626","REV_AT_EPOCH":"3532","LAUNCH_DATE":"2021-03-14","MEAN_ELEMENT_THEORY":"SGP4","PERIAPSIS":"546.047","TLE_LINE2":"2 47918  53.0559 245.7268 0001708  71.7646 288.3529 15.06394626 35321","EPOCH":"2021-10-23T14:20:09.303360","OBJECT_TYPE":"PAYLOAD","MEAN_MOTION_DOT":"0.00002073","PERIOD":"95.592","RCS_SIZE":"LARGE","ECCENTRICITY":"0.00017080","SEMIMAJOR_AXIS":"6925.365","TLE_LINE1":"1 47918U 21021BL  21296.59732990  .00002073  00000-0  15802-3 0  9990","RA_OF_ASC_NODE":"245.7268"},{"BSTAR":"-0.00000019648000","REF_FRAME":"TEME","GP_ID":"188025343","NORAD_CAT_ID":"47919","MEAN_ANOMALY":"277.0326","COUNTRY_CODE":"US","CENTER_NAME":"EARTH","INCLINATION":"53.0544","CLASSIFICATION_TYPE":"U","EPHEMERIS_TYPE":"0","OBJECT_NAME":"STARLINK-2405","FILE":"3181152","APOAPSIS":"548.208","ELEMENT_SET_NO":"999","ARG_OF_PERICENTER":"83.0826","SITE":"AFETR","MEAN_MOTION":"15.06400721","MEAN_MOTION_DDOT":"0.0000000000000","DECAY_DATE":null,"OBJECT_ID":"2021-021BM","TIME_SYSTEM":"UTC","MEAN_ELEMENT_THEORY":"SGP4","PERIAPSIS":"546.215","LAUNCH_DATE":"2021-03-14","REV_AT_EPOCH":"3516","MEAN_MOTION_DOT":"-0.00000284","OBJECT_TYPE":"PAYLOAD","EPOCH":"2021-10-23T13:57:34.335360","TLE_LINE2":"2 47919  53.0544 255.7938 0001439  83.0826 277.0326 15.06400721 35164","PERIOD":"95.592","RA_OF_ASC_NODE":"255.7938","TLE_LINE1":"1 47919U 21021BM  21296.58164740 -.00000284  00000-0 -19648-6 0  9991","RCS_SIZE":"LARGE","SEMIMAJOR_AXIS":"6925.346","ECCENTRICITY":"0.00014390"},{"REV_AT_EPOCH":"3385","LAUNCH_DATE":"2021-03-24","PERIAPSIS":"546.324","MEAN_ELEMENT_THEORY":"SGP4","OBJECT_TYPE":"PAYLOAD","MEAN_MOTION_DOT":"-0.00000219","TLE_LINE2":"2 47977  53.0551 300.1581 0001336  82.4674 277.6467 15.06388478 33855","EPOCH":"2021-10-23T17:21:16.848288","PERIOD":"95.593","RA_OF_ASC_NODE":"300.1581","RCS_SIZE":"LARGE","ECCENTRICITY":"0.00013360","SEMIMAJOR_AXIS":"6925.384","TLE_LINE1":"1 47977U 21024A   21296.72311167 -.00000219  00000-0  42003-5 0  9998","GP_ID":"188024348","REF_FRAME":"TEME","BSTAR":"0.00000420030000","COUNTRY_CODE":"US","NORAD_CAT_ID":"47977","MEAN_ANOMALY":"277.6467","CLASSIFICATION_TYPE":"U","INCLINATION":"53.0551","CENTER_NAME":"EARTH","EPHEMERIS_TYPE":"0","FILE":"3181152","ELEMENT_SET_NO":"999","APOAPSIS":"548.174","OBJECT_NAME":"STARLINK-2087","SITE":"AFETR","ARG_OF_PERICENTER":"82.4674","OBJECT_ID":"2021-024A","DECAY_DATE":null,"MEAN_MOTION_DDOT":"0.0000000000000","MEAN_MOTION":"15.06388478","TIME_SYSTEM":"UTC"},{"TIME_SYSTEM":"UTC","DECAY_DATE":null,"OBJECT_ID":"2021-024B","MEAN_MOTION":"15.06398354","MEAN_MOTION_DDOT":"0.0000000000000","ARG_OF_PERICENTER":"78.1693","SITE":"AFETR","OBJECT_NAME":"STARLINK-1647","FILE":"3181152","APOAPSIS":"548.141","ELEMENT_SET_NO":"999","EPHEMERIS_TYPE":"0","INCLINATION":"53.0542","CLASSIFICATION_TYPE":"U","CENTER_NAME":"EARTH","COUNTRY_CODE":"US","NORAD_CAT_ID":"47978","MEAN_ANOMALY":"281.9445","GP_ID":"188024598","REF_FRAME":"TEME","BSTAR":"-0.00001230300000","SEMIMAJOR_AXIS":"6925.354","RCS_SIZE":"LARGE","ECCENTRICITY":"0.00013320","TLE_LINE1":"1 47978U 21024B   21296.81064095 -.00000465  00000-0 -12303-4 0  9997","RA_OF_ASC_NODE":"309.7852","PERIOD":"95.592","TLE_LINE2":"2 47978  53.0542 309.7852 0001332  78.1693 281.9445 15.06398354 33725","EPOCH":"2021-10-23T19:27:19.378080","MEAN_MOTION_DOT":"-0.00000465","OBJECT_TYPE":"PAYLOAD","REV_AT_EPOCH":"3372","PERIAPSIS":"546.296","MEAN_ELEMENT_THEORY":"SGP4","LAUNCH_DATE":"2021-03-24"},{"RCS_SIZE":"LARGE","SEMIMAJOR_AXIS":"6932.809","ECCENTRICITY":"0.00023660","TLE_LINE1":"1 47979U 21024C   21297.00002315 -.00028258  00000-0 -20133-2 0  9995","RA_OF_ASC_NODE":"242.3886","PERIOD":"95.747","TLE_LINE2":"2 47979  53.0619 242.3886 0002366  56.3812 323.7888 15.03969094  3601","EPOCH":"2021-10-24T00:00:02.000160","MEAN_MOTION_DOT":"-0.00028258","OBJECT_TYPE":"PAYLOAD","REV_AT_EPOCH":"360","MEAN_ELEMENT_THEORY":"SGP4","PERIAPSIS":"553.034","LAUNCH_DATE":"2021-03-24","TIME_SYSTEM":"UTC","DECAY_DATE":null,"OBJECT_ID":"2021-024C","MEAN_MOTION":"15.03969094","MEAN_MOTION_DDOT":"0.0000000000000","SITE":"AFETR","ARG_OF_PERICENTER":"56.3812","OBJECT_NAME":"STARLINK-2325","ELEMENT_SET_NO":"999","FILE":"3181152","APOAPSIS":"556.314","EPHEMERIS_TYPE":"0","INCLINATION":"53.0619","CLASSIFICATION_TYPE":"U","CENTER_NAME":"EARTH","COUNTRY_CODE":"US","NORAD_CAT_ID":"47979","MEAN_ANOMALY":"323.7888","REF_FRAME":"TEME","GP_ID":"188025350","BSTAR":"-0.00201330000000"}];
